{"type": "Feature", "properties": {"name": "Buffalo Kloof Protected Environment", "source": "Overture Maps release 2026-09-23.1, theme=base type=land_use subtype=protected (from OpenStreetMap)", "overture_id": "52dab0a6-e781-34c6-b54c-c6916940ff4e", "area_ha": 7474}, "geometry": {"type": "Polygon", "coordinates": [[[26.6631719, -33.4233647], [26.6561775, -33.4088752], [26.6519147, -33.4100841], [26.6519308, -33.4097125], [26.6523975, -33.4086333], [26.6527408, -33.408387], [26.6539156, -33.4079571], [26.6541409, -33.40776], [26.6539961, -33.4063808], [26.6538513, -33.405718], [26.6535026, -33.4052971], [26.6528213, -33.4050955], [26.6524941, -33.4050866], [26.6520595, -33.4051761], [26.6504609, -33.4063942], [26.6494203, -33.4068241], [26.6471457, -33.4071734], [26.6464376, -33.4071913], [26.6450536, -33.4070928], [26.6445279, -33.4069047], [26.6444099, -33.4067435], [26.6443562, -33.4065733], [26.6460514, -33.4032057], [26.6462445, -33.4025071], [26.6461909, -33.4017995], [26.6462338, -33.4016204], [26.6465557, -33.4011188], [26.6509437, -33.4013427], [26.651845, -33.4013427], [26.6522956, -33.4013875], [26.6525316, -33.4014233], [26.6531539, -33.4016472], [26.653744, -33.4019697], [26.6544735, -33.4022563], [26.6546881, -33.4022115], [26.6548276, -33.4018532], [26.6548276, -33.4016652], [26.6539693, -33.39982], [26.6544413, -33.3982615], [26.6545057, -33.3973927], [26.6546881, -33.3970433], [26.6550314, -33.3967925], [26.655482, -33.3967836], [26.656115, -33.3969269], [26.6572308, -33.3968821], [26.6599667, -33.3970344], [26.6605461, -33.3973748], [26.6609537, -33.3975449], [26.6620803, -33.397527], [26.6623056, -33.3974464], [26.6625845, -33.3971777], [26.6627777, -33.3967298], [26.6627455, -33.3963626], [26.6625953, -33.3960132], [26.6621661, -33.3955923], [26.6613936, -33.3952071], [26.6587651, -33.3941053], [26.6642854, -33.3803003], [26.6566723, -33.3770382], [26.6502836, -33.3721136], [26.646286, -33.3695915], [26.6434509, -33.3683811], [26.6410586, -33.3678958], [26.6375395, -33.3668622], [26.635537, -33.3661984], [26.6340171, -33.3655643], [26.6318292, -33.3684727], [26.6296604, -33.3687911], [26.6292784, -33.3688411], [26.6292543, -33.3686002], [26.629, -33.3680079], [26.6286573, -33.3671053], [26.6284132, -33.3666438], [26.6281192, -33.3661212], [26.6279347, -33.3658953], [26.6277674, -33.3657947], [26.6276143, -33.3657441], [26.6274852, -33.3657187], [26.6274045, -33.3657211], [26.621725, -33.362999], [26.6085005, -33.3632052], [26.6041982, -33.3622375], [26.6029362, -33.3605644], [26.6032583, -33.3561215], [26.5971935, -33.3512196], [26.5950465, -33.3504959], [26.5908569, -33.3500105], [26.5769255, -33.3482933], [26.5722906, -33.350731], [26.5660143, -33.3542575], [26.5586972, -33.3649077], [26.5591693, -33.3651228], [26.5622806, -33.3681872], [26.5688896, -33.3704452], [26.5693402, -33.3704452], [26.5698123, -33.3705169], [26.5712714, -33.3708573], [26.5724945, -33.3710724], [26.5780091, -33.3735274], [26.5794897, -33.3739395], [26.5820646, -33.3751222], [26.5830517, -33.3751401], [26.5881693, -33.3780609], [26.5961409, -33.3827867], [26.5941989, -33.3847263], [26.5935069, -33.3857251], [26.574474, -33.3898325], [26.5713572, -33.3917494], [26.5715718, -33.3935768], [26.572752, -33.3959774], [26.5782559, -33.4016114], [26.5958619, -33.4116559], [26.601854, -33.4166665], [26.6067946, -33.4204947], [26.6094017, -33.4225767], [26.6097343, -33.4229349], [26.6098416, -33.4232483], [26.6097195, -33.4243732], [26.6106302, -33.4244158], [26.6177635, -33.4250358], [26.6399896, -33.4586116], [26.6403901, -33.4594004], [26.640606, -33.4596042], [26.6410859, -33.4599223], [26.641234, -33.4600723], [26.6421006, -33.4606708], [26.6481221, -33.4644227], [26.6543877, -33.4683496], [26.6649047, -33.4813953], [26.6668332, -33.4858717], [26.678946, -33.4795004], [26.7001462, -33.4680721], [26.7012405, -33.4678663], [26.6999423, -33.4658794], [26.7000067, -33.465405], [26.700865, -33.4649307], [26.7038543, -33.4642646], [26.7043744, -33.4636236], [26.7018306, -33.4625141], [26.7014658, -33.4623261], [26.6998458, -33.4616638], [26.6993201, -33.4613773], [26.6976249, -33.4594887], [26.6957474, -33.4580566], [26.6949534, -33.4577165], [26.6947034, -33.4570974], [26.6955618, -33.4561022], [26.6933441, -33.4519339], [26.6931724, -33.4513476], [26.6908121, -33.4508508], [26.6897607, -33.452104], [26.6854906, -33.4546283], [26.6753411, -33.454682], [26.6749549, -33.4526948], [26.673131, -33.4520145], [26.6734099, -33.4480489], [26.6737962, -33.4458735], [26.6743219, -33.4443964], [26.6730022, -33.4443695], [26.6714573, -33.4431341], [26.6707599, -33.4420687], [26.6706204, -33.4412809], [26.6714358, -33.4397858], [26.6717362, -33.4394814], [26.6726911, -33.4389532], [26.673603, -33.4389263], [26.6758561, -33.4374849], [26.6781199, -33.4344855], [26.6781628, -33.4332589], [26.677959, -33.4318532], [26.6777444, -33.4315398], [26.677562, -33.4314324], [26.6771221, -33.4313339], [26.6764784, -33.4313697], [26.6762745, -33.4314324], [26.675384, -33.4322024], [26.6749227, -33.4336529], [26.6749656, -33.434405], [26.675384, -33.4354346], [26.6752446, -33.4361688], [26.6751373, -33.4363299], [26.6749549, -33.4364105], [26.6745257, -33.4365896], [26.6717362, -33.4370372], [26.6703522, -33.4371626], [26.6694832, -33.4370193], [26.6686249, -33.4362941], [26.6670799, -33.4338857], [26.6665113, -33.4332679], [26.6645372, -33.4296506], [26.6673696, -33.4272509], [26.667273, -33.4265435], [26.6668653, -33.4259436], [26.6660821, -33.4255138], [26.6655779, -33.4254869], [26.66502, -33.4255406], [26.6642582, -33.4257287], [26.6612112, -33.4269733], [26.6631719, -33.4233647]]]}}