{"type": "Feature", "properties": {"name": "Kwandwe Private Game Reserve", "source": "Overture Maps base/land_use (OpenStreetMap), release 2026-09-23.1", "overture_id": "f7f9c14f-bc3c-3e75-9ecb-3344a2cd03bc"}, "geometry": {"type": "Polygon", "coordinates": [[[26.6159384, -33.0762329], [26.6156211, -33.0752228], [26.6151821, -33.0750271], [26.6136353, -33.0752466], [26.6116732, -33.0755004], [26.6106843, -33.0756432], [26.6099439, -33.0756115], [26.609341, -33.0753577], [26.6089179, -33.074961], [26.6079078, -33.0726023], [26.6069453, -33.0701273], [26.6063318, -33.0686677], [26.6061996, -33.0683081], [26.6057342, -33.06761], [26.6039626, -33.0662667], [26.6030688, -33.0656004], [26.6013712, -33.0648124], [26.6012654, -33.0646484], [26.6011544, -33.0644475], [26.6009587, -33.0640614], [26.6007524, -33.0636701], [26.6002976, -33.0634691], [26.5997899, -33.0635114], [26.5973837, -33.0629032], [26.5957918, -33.0628345], [26.5954798, -33.0628609], [26.594311, -33.0631624], [26.5938615, -33.0633263], [26.5927615, -33.0641407], [26.5922221, -33.0644739], [26.5917673, -33.0643999], [26.5914923, -33.0644633], [26.5909846, -33.0647701], [26.5906302, -33.0650133], [26.5904399, -33.0651032], [26.590186, -33.0651403], [26.5896096, -33.0652513], [26.5892499, -33.0653888], [26.5888004, -33.0653888], [26.587161, -33.0652143], [26.5853259, -33.0648864], [26.5851302, -33.0648229], [26.583147, -33.0634109], [26.5813806, -33.0623109], [26.5806455, -33.0617821], [26.5802648, -33.0616128], [26.579334, -33.0613325], [26.575283, -33.0601849], [26.5738657, -33.0597777], [26.5735008, -33.0596772], [26.5731517, -33.0596561], [26.5725806, -33.0596878], [26.5719565, -33.0598517], [26.5702959, -33.0602325], [26.5697882, -33.0603753], [26.5689685, -33.0606768], [26.5676305, -33.0611897], [26.5651872, -33.0620782], [26.5646531, -33.0622898], [26.5641877, -33.062422], [26.5637593, -33.0625013], [26.5634949, -33.0624643], [26.5630718, -33.0624167], [26.5623896, -33.062221], [26.5594492, -33.0615123], [26.5586876, -33.0612902], [26.5573708, -33.0610681], [26.5556415, -33.060883], [26.55636, -33.0608319], [26.5512044, -33.0603753], [26.5501044, -33.060259], [26.5478092, -33.0599628], [26.5468625, -33.0597936], [26.5439486, -33.059582], [26.5421716, -33.0594287], [26.5400192, -33.0592277], [26.5381841, -33.0590743], [26.5375942, -33.0589137], [26.5371567, -33.0587715], [26.5362485, -33.058519], [26.5338528, -33.0575936], [26.5320917, -33.0569431], [26.5302672, -33.0562238], [26.5297754, -33.056081], [26.5291883, -33.0559594], [26.5264013, -33.0555945], [26.5248465, -33.0554358], [26.5241748, -33.0554306], [26.5205258, -33.0555099], [26.5204835, -33.0561075], [26.5190291, -33.0565782], [26.5186272, -33.056557], [26.5181724, -33.0562661], [26.5166916, -33.0561921], [26.5166969, -33.0553671], [26.5151897, -33.0552983], [26.5135925, -33.0552455], [26.5123973, -33.0552613], [26.5091502, -33.0553988], [26.5049617, -33.0555998], [26.5032482, -33.0556738], [26.5021429, -33.0557426], [26.5009318, -33.0556474], [26.498991, -33.055531], [26.4907303, -33.0549123], [26.4904712, -33.055256], [26.4902015, -33.0558272], [26.4900269, -33.0567262], [26.4900111, -33.0574032], [26.4899952, -33.0578315], [26.4899476, -33.0587676], [26.4899106, -33.0604705], [26.4898947, -33.0614092], [26.4897149, -33.0618693], [26.4894981, -33.0622712], [26.4884774, -33.0641222], [26.4879856, -33.0649895], [26.4875836, -33.0657193], [26.487261, -33.066391], [26.4870759, -33.0666078], [26.4863726, -33.0672001], [26.4852091, -33.068078], [26.484162, -33.0689242], [26.4839134, -33.0692997], [26.4837565, -33.0694819], [26.4833215, -33.0705858], [26.4831294, -33.0711239], [26.4829112, -33.0714703], [26.4826429, -33.0717122], [26.4823401, -33.0718682], [26.4816513, -33.0719251], [26.4811409, -33.0717757], [26.4807826, -33.0717003], [26.4802776, -33.0715681], [26.4795425, -33.071465], [26.4791987, -33.0714676], [26.4787465, -33.0714888], [26.4774944, -33.0717249], [26.4744108, -33.0761824], [26.4717192, -33.0801827], [26.4697662, -33.0807344], [26.4684976, -33.0820339], [26.4674884, -33.0832754], [26.4655319, -33.0837836], [26.4635282, -33.0846402], [26.4614083, -33.0853445], [26.4614155, -33.085751], [26.4612776, -33.0861067], [26.4609291, -33.0863754], [26.4605371, -33.0865569], [26.4607113, -33.0867892], [26.4608347, -33.0870723], [26.4608783, -33.0873482], [26.4607331, -33.0885098], [26.460508, -33.0896423], [26.4601469, -33.0902231], [26.4597185, -33.0906152], [26.4587747, -33.090862], [26.4546783, -33.0912032], [26.4542936, -33.0912613], [26.4536039, -33.0916388], [26.4531537, -33.0920454], [26.45168, -33.093461], [26.4494167, -33.0956027], [26.4495474, -33.0957407], [26.4499176, -33.095835], [26.4504041, -33.0957552], [26.4505928, -33.0958496], [26.4510429, -33.096198], [26.4519432, -33.0967425], [26.4524441, -33.0972798], [26.4560886, -33.0967716], [26.4581449, -33.0967425], [26.4598292, -33.0962416], [26.4600035, -33.0962779], [26.4618911, -33.0968151], [26.4619854, -33.0968732], [26.4636117, -33.098405], [26.4638367, -33.0985285], [26.4640472, -33.0985648], [26.4716647, -33.0990439], [26.4755724, -33.0993053], [26.4759571, -33.099298], [26.4762185, -33.0993561], [26.4762838, -33.0996683], [26.4763274, -33.0998352], [26.4761967, -33.1002563], [26.4761532, -33.1030732], [26.4761023, -33.107313], [26.4761023, -33.1078284], [26.4708879, -33.1079083], [26.4629238, -33.1079881], [26.4619019, -33.1091425], [26.4586604, -33.1127434], [26.4572592, -33.1142897], [26.4570487, -33.1187328], [26.4568236, -33.1237131], [26.4562065, -33.1346102], [26.4515275, -33.139184], [26.4512724, -33.1430955], [26.4469347, -33.1436792], [26.4464837, -33.1440904], [26.4461288, -33.1450587], [26.4448023, -33.1450853], [26.4444574, -33.145271], [26.4424411, -33.1494495], [26.4384615, -33.1573025], [26.4359975, -33.1621974], [26.4449781, -33.1627811], [26.4438107, -33.1656994], [26.4421393, -33.1696525], [26.4396056, -33.1753565], [26.4384383, -33.1781555], [26.4370587, -33.1810871], [26.4368332, -33.1816044], [26.443426, -33.1849871], [26.4527581, -33.1896299], [26.4569698, -33.1954666], [26.459394, -33.19869], [26.4646229, -33.2001879], [26.4657355, -33.2006117], [26.471457, -33.2002409], [26.4741059, -33.2013534], [26.4769137, -33.2009561], [26.4799069, -33.20236], [26.4903831, -33.2052208], [26.5036804, -33.1960027], [26.5202888, -33.184957], [26.521004, -33.1844537], [26.5304869, -33.1796328], [26.5332417, -33.1781494], [26.5502606, -33.1672096], [26.5647896, -33.1578856], [26.5790074, -33.1486941], [26.5931722, -33.1395555], [26.5960377, -33.1390445], [26.5991278, -33.1382519], [26.5995868, -33.1387882], [26.6000346, -33.1391221], [26.6015337, -33.1392296], [26.6073572, -33.1396368], [26.6082987, -33.1390312], [26.6096243, -33.1376731], [26.6112364, -33.1358868], [26.6112726, -33.1352565], [26.6110104, -33.1344136], [26.6106205, -33.1327642], [26.6109053, -33.1318233], [26.6115647, -33.1312938], [26.6121323, -33.1309176], [26.6123468, -33.1305686], [26.6122842, -33.1295844], [26.6128005, -33.1288292], [26.6135152, -33.1282165], [26.613819, -33.1278958], [26.6140707, -33.1275851], [26.6131487, -33.1268307], [26.6106935, -33.1248607], [26.6098051, -33.1240542], [26.6091731, -33.123261], [26.608676, -33.1223646], [26.6083163, -33.1214417], [26.6081339, -33.1206273], [26.6079409, -33.1198076], [26.6080308, -33.1196145], [26.6081154, -33.119054], [26.6082793, -33.1183215], [26.6086707, -33.1168143], [26.6090911, -33.1148708], [26.6096781, -33.1123799], [26.6102361, -33.1099419], [26.6106618, -33.1080221], [26.6110082, -33.1067952], [26.6111034, -33.1064224], [26.611582, -33.1055498], [26.6119813, -33.1049839], [26.612481, -33.1043784], [26.6129121, -33.1038892], [26.6131738, -33.103638], [26.6137767, -33.1030139], [26.6139777, -33.1028156], [26.6143928, -33.1025247], [26.6147392, -33.1023], [26.6151676, -33.1020884], [26.6156885, -33.101861], [26.6160481, -33.1017553], [26.6171164, -33.101475], [26.6173518, -33.1014089], [26.6175474, -33.101311], [26.6181741, -33.1009038], [26.6184412, -33.1006473], [26.6187691, -33.1002242], [26.6188801, -33.1000418], [26.6189489, -33.0995552], [26.6185813, -33.0988757], [26.6186131, -33.0985266], [26.6176849, -33.0966069], [26.6176347, -33.0962869], [26.6175765, -33.0940367], [26.6184637, -33.0921407], [26.6195399, -33.0905357], [26.6197726, -33.0879681], [26.6185456, -33.0841181], [26.6176572, -33.0812676], [26.6159384, -33.0762329]]]}}